{
    "links": {
        "self": "http://www.neowsapp.com/rest/v1/neo/3838033?api_key=iIulBulltgU6a56xZRHN4H3l9WmuAYTsLGpBGhQ2"
    },
    "id": "3838033",
    "neo_reference_id": "3838033",
    "name": "(2019 BF3)",
    "designation": "2019 BF3",
    "nasa_jpl_url": "http://ssd.jpl.nasa.gov/sbdb.cgi?sstr=3838033",
    "absolute_magnitude_h": 25.1,
    "estimated_diameter": {
        "kilometers": {
            "estimated_diameter_min": 0.0253837029,
            "estimated_diameter_max": 0.0567596853
        },
        "meters": {
            "estimated_diameter_min": 25.3837029364,
            "estimated_diameter_max": 56.7596852866
        },
        "miles": {
            "estimated_diameter_min": 0.0157726969,
            "estimated_diameter_max": 0.0352688224
        },
        "feet": {
            "estimated_diameter_min": 83.279867942,
            "estimated_diameter_max": 186.2194458756
        }
    },
    "is_potentially_hazardous_asteroid": false,
    "close_approach_data": [
        {
            "close_approach_date": "2017-02-16",
            "close_approach_date_full": "2017-Feb-16 11:04",
            "epoch_date_close_approach": 1487243040000,
            "relative_velocity": {
                "kilometers_per_second": "13.7933377222",
                "kilometers_per_hour": "49656.0157998433",
                "miles_per_hour": "30854.3171507415"
            },
            "miss_distance": {
                "astronomical": "0.2836445273",
                "lunar": "110.3377211197",
                "kilometers": "42432617.121236851",
                "miles": "26366405.6526605038"
            },
            "orbiting_body": "Earth"
        },
        {
            "close_approach_date": "2019-01-26",
            "close_approach_date_full": "2019-Jan-26 22:41",
            "epoch_date_close_approach": 1548542460000,
            "relative_velocity": {
                "kilometers_per_second": "9.1672124021",
                "kilometers_per_hour": "33001.9646476236",
                "miles_per_hour": "20506.137422297"
            },
            "miss_distance": {
                "astronomical": "0.0414191652",
                "lunar": "16.1120552628",
                "kilometers": "6196218.891098124",
                "miles": "3850151.8850131512"
            },
            "orbiting_body": "Earth"
        },
        {
            "close_approach_date": "2021-01-01",
            "close_approach_date_full": "2021-Jan-01 09:19",
            "epoch_date_close_approach": 1609492740000,
            "relative_velocity": {
                "kilometers_per_second": "11.9386719798",
                "kilometers_per_hour": "42979.2191271738",
                "miles_per_hour": "26705.6153515486"
            },
            "miss_distance": {
                "astronomical": "0.2662072302",
                "lunar": "103.5546125478",
                "kilometers": "39824034.616519674",
                "miles": "24745507.6462685412"
            },
            "orbiting_body": "Earth"
        }
    ],
    "orbital_data": {
        "orbit_id": "4",
        "orbit_determination_date": "2019-02-03 07:04:37",
        "first_observation_date": "2019-01-17",
        "last_observation_date": "2019-02-03",
        "data_arc_in_days": 17,
        "observations_used": 46,
        "orbit_uncertainty": "7",
        "minimum_orbit_intersection": ".0407393",
        "jupiter_tisserand_invariant": "4.320",
        "epoch_osculation": "2459000.5",
        "eccentricity": ".3474578591456873",
        "semi_major_axis": "1.564897757531095",
        "inclination": "14.68640222287587",
        "ascending_node_longitude": "127.3742973685088",
        "orbital_period": "715.0351296402263",
        "perihelion_distance": "1.021161732917454",
        "perihelion_argument": "349.0239363980899",
        "aphelion_distance": "2.108633782144736",
        "perihelion_time": "2459216.872661180645",
        "mean_anomaly": "251.0624740014868",
        "mean_motion": ".5034717667384202",
        "equinox": "J2000",
        "orbit_class": {
            "orbit_class_type": "AMO",
            "orbit_class_description": "Near-Earth asteroid orbits similar to that of 1221 Amor",
            "orbit_class_range": "1.017 AU < q (perihelion) < 1.3 AU"
        }
    },
    "is_sentry_object": false
}